{
    "links": {
        "self": "http://www.neowsapp.com/rest/v1/neo/3435542?api_key=iIulBulltgU6a56xZRHN4H3l9WmuAYTsLGpBGhQ2"
    },
    "id": "3435542",
    "neo_reference_id": "3435542",
    "name": "(2008 UD202)",
    "designation": "2008 UD202",
    "nasa_jpl_url": "http://ssd.jpl.nasa.gov/sbdb.cgi?sstr=3435542",
    "absolute_magnitude_h": 23.9,
    "estimated_diameter": {
        "kilometers": {
            "estimated_diameter_min": 0.04411182,
            "estimated_diameter_max": 0.0986370281
        },
        "meters": {
            "estimated_diameter_min": 44.1118199997,
            "estimated_diameter_max": 98.6370281305
        },
        "miles": {
            "estimated_diameter_min": 0.0274098057,
            "estimated_diameter_max": 0.0612901888
        },
        "feet": {
            "estimated_diameter_min": 144.7238235278,
            "estimated_diameter_max": 323.6123073718
        }
    },
    "is_potentially_hazardous_asteroid": false,
    "close_approach_data": [
        {
            "close_approach_date": "2008-09-17",
            "close_approach_date_full": "2008-Sep-17 03:43",
            "epoch_date_close_approach": 1221622980000,
            "relative_velocity": {
                "kilometers_per_second": "4.3072823136",
                "kilometers_per_hour": "15506.2163288569",
                "miles_per_hour": "9634.9598072278"
            },
            "miss_distance": {
                "astronomical": "0.142081479",
                "lunar": "55.269695331",
                "kilometers": "21255086.62484973",
                "miles": "13207298.398117074"
            },
            "orbiting_body": "Earth"
        }
    ],
    "orbital_data": {
        "orbit_id": "7",
        "orbit_determination_date": "2017-04-06 09:02:19",
        "first_observation_date": "2008-10-31",
        "last_observation_date": "2008-11-03",
        "data_arc_in_days": 3,
        "observations_used": 19,
        "orbit_uncertainty": "9",
        "minimum_orbit_intersection": ".136208",
        "jupiter_tisserand_invariant": "3.852",
        "epoch_osculation": "2454772.5",
        "eccentricity": ".4124493779009172",
        "semi_major_axis": "1.884977362689624",
        "inclination": "5.684067944641288",
        "ascending_node_longitude": "234.9524963676064",
        "orbital_period": "945.2738316943867",
        "perihelion_distance": "1.107519622090977",
        "perihelion_argument": "118.2542585563231",
        "aphelion_distance": "2.662435103288271",
        "perihelion_time": "2454723.294619655746",
        "mean_anomaly": "18.73947667860383",
        "mean_motion": ".3808420247439901",
        "equinox": "J2000",
        "orbit_class": {
            "orbit_class_type": "AMO",
            "orbit_class_description": "Near-Earth asteroid orbits similar to that of 1221 Amor",
            "orbit_class_range": "1.017 AU < q (perihelion) < 1.3 AU"
        }
    },
    "is_sentry_object": false
}